2026-027A               
1 67746U 26027A   26071.67027325  .00009214  00000+0  45866-3 0  9992
2 67746  97.4902 200.6521 0010385 183.8106 176.3051 15.17773627  4310
2026-027B               
1 67747U 26027B   26071.66838799  .00009214  00000+0  45733-3 0  9990
2 67747  97.4897 200.6526 0010514 186.3391 173.7711 15.17873472  4310
2026-027C               
1 67748U 26027C   26071.66697571  .00006501  00000+0  32389-3 0  9991
2 67748  97.4909 200.6588 0010883 188.4702 171.6349 15.17859836  4313
2026-027D               
1 67749U 26027D   26071.66236544  .00010800  00000+0  52975-3 0  9991
2 67749  97.4902 200.6631 0010451 193.7610 166.3341 15.18240741  4261
2026-027E               
1 67750U 26027E   26071.66268141  .00009306  00000+0  45789-3 0  9995
2 67750  97.4913 200.6668 0009727 194.3943 165.7015 15.18182027  4314
2026-027F               
1 67751U 26027F   26068.82581808  .00004513  00000+0  22391-3 0  9997
2 67751  97.4922 197.8630 0009672 203.5802 156.4990 15.18180546  3881
2026-027G               
1 67752U 26027G   26071.69146112  .00008444  00000+0  49183-3 0  9997
2 67752  97.4910 200.6271 0012147 216.7250 143.3149 15.12196978  4317
JIELONG-3 R/B           
1 67753U 26027H   26071.68000686  .00630459  23594-5  74736-3 0  9990
2 67753  97.5109 202.9670 0201613 234.0184 124.2243 15.79676767  4454
2025-313BF              
1 67755U 25313BF  26071.44038009  .00014186  00000+0  48293-3 0  9996
2 67755  97.3938 148.0859 0009215 325.7810  34.2836 15.30481570  6948
2026-028A               
1 67756U 26028A   26071.31264708 -.00000096  00000+0  00000+0 0  9990
2 67756   0.4645 290.6128 0003532  42.5096  26.8396  1.00209243   284
JAM-E JAM 1             
1 67757U 26028B   26071.57851628  .00000155  00000+0  00000+0 0  9997
2 67757   0.4865 286.1406 0005754 134.5284 351.7729  1.00231300   152
KUIPER-00159            
1 67764U 26030A   26071.62538730  .00034924  00000+0  98866-3 0  9992
2 67764  51.8843 205.0072 0005510  52.5888 307.5599 15.35950434  5545
