CCSDS_OMM_VERS = 2.0
CREATION_DATE  = 
ORIGINATOR     = 

OBJECT_NAME    = 2026-027A
OBJECT_ID      = 2026-027A
CENTER_NAME    = EARTH
REF_FRAME      = TEME
TIME_SYSTEM    = UTC
MEAN_ELEMENT_THEORY = SGP/SGP4

EPOCH          = 2026-03-12T16:05:11.608800
MEAN_MOTION    = 15.17773627
ECCENTRICITY   = .0010385
INCLINATION    = 97.4902
RA_OF_ASC_NODE = 200.6521
ARG_OF_PERICENTER = 183.8106
MEAN_ANOMALY   = 176.3051

EPHEMERIS_TYPE = 0
CLASSIFICATION_TYPE = U
NORAD_CAT_ID   = 67746
ELEMENT_SET_NO = 999
REV_AT_EPOCH   = 431
BSTAR          = .45866E-3
MEAN_MOTION_DOT = .9214E-4
MEAN_MOTION_DDOT = 0

CCSDS_OMM_VERS = 2.0
CREATION_DATE  = 
ORIGINATOR     = 

OBJECT_NAME    = 2026-027B
OBJECT_ID      = 2026-027B
CENTER_NAME    = EARTH
REF_FRAME      = TEME
TIME_SYSTEM    = UTC
MEAN_ELEMENT_THEORY = SGP/SGP4

EPOCH          = 2026-03-12T16:02:28.722336
MEAN_MOTION    = 15.17873472
ECCENTRICITY   = .0010514
INCLINATION    = 97.4897
RA_OF_ASC_NODE = 200.6526
ARG_OF_PERICENTER = 186.3391
MEAN_ANOMALY   = 173.7711

EPHEMERIS_TYPE = 0
CLASSIFICATION_TYPE = U
NORAD_CAT_ID   = 67747
ELEMENT_SET_NO = 999
REV_AT_EPOCH   = 431
BSTAR          = .45733E-3
MEAN_MOTION_DOT = .9214E-4
MEAN_MOTION_DDOT = 0

CCSDS_OMM_VERS = 2.0
CREATION_DATE  = 
ORIGINATOR     = 

OBJECT_NAME    = 2026-027C
OBJECT_ID      = 2026-027C
CENTER_NAME    = EARTH
REF_FRAME      = TEME
TIME_SYSTEM    = UTC
MEAN_ELEMENT_THEORY = SGP/SGP4

EPOCH          = 2026-03-12T16:00:26.701344
MEAN_MOTION    = 15.17859836
ECCENTRICITY   = .0010883
INCLINATION    = 97.4909
RA_OF_ASC_NODE = 200.6588
ARG_OF_PERICENTER = 188.4702
MEAN_ANOMALY   = 171.6349

EPHEMERIS_TYPE = 0
CLASSIFICATION_TYPE = U
NORAD_CAT_ID   = 67748
ELEMENT_SET_NO = 999
REV_AT_EPOCH   = 431
BSTAR          = .32389E-3
MEAN_MOTION_DOT = .6501E-4
MEAN_MOTION_DDOT = 0

CCSDS_OMM_VERS = 2.0
CREATION_DATE  = 
ORIGINATOR     = 

OBJECT_NAME    = 2026-027D
OBJECT_ID      = 2026-027D
CENTER_NAME    = EARTH
REF_FRAME      = TEME
TIME_SYSTEM    = UTC
MEAN_ELEMENT_THEORY = SGP/SGP4

EPOCH          = 2026-03-12T15:53:48.374016
MEAN_MOTION    = 15.18240741
ECCENTRICITY   = .0010451
INCLINATION    = 97.4902
RA_OF_ASC_NODE = 200.6631
ARG_OF_PERICENTER = 193.7610
MEAN_ANOMALY   = 166.3341

EPHEMERIS_TYPE = 0
CLASSIFICATION_TYPE = U
NORAD_CAT_ID   = 67749
ELEMENT_SET_NO = 999
REV_AT_EPOCH   = 426
BSTAR          = .52975E-3
MEAN_MOTION_DOT = .108E-3
MEAN_MOTION_DDOT = 0

CCSDS_OMM_VERS = 2.0
CREATION_DATE  = 
ORIGINATOR     = 

OBJECT_NAME    = 2026-027E
OBJECT_ID      = 2026-027E
CENTER_NAME    = EARTH
REF_FRAME      = TEME
TIME_SYSTEM    = UTC
MEAN_ELEMENT_THEORY = SGP/SGP4

EPOCH          = 2026-03-12T15:54:15.673824
MEAN_MOTION    = 15.18182027
ECCENTRICITY   = .0009727
INCLINATION    = 97.4913
RA_OF_ASC_NODE = 200.6668
ARG_OF_PERICENTER = 194.3943
MEAN_ANOMALY   = 165.7015

EPHEMERIS_TYPE = 0
CLASSIFICATION_TYPE = U
NORAD_CAT_ID   = 67750
ELEMENT_SET_NO = 999
REV_AT_EPOCH   = 431
BSTAR          = .45789E-3
MEAN_MOTION_DOT = .9306E-4
MEAN_MOTION_DDOT = 0

CCSDS_OMM_VERS = 2.0
CREATION_DATE  = 
ORIGINATOR     = 

OBJECT_NAME    = 2026-027F
OBJECT_ID      = 2026-027F
CENTER_NAME    = EARTH
REF_FRAME      = TEME
TIME_SYSTEM    = UTC
MEAN_ELEMENT_THEORY = SGP/SGP4

EPOCH          = 2026-03-09T19:49:10.682112
MEAN_MOTION    = 15.18180546
ECCENTRICITY   = .00096725
INCLINATION    = 97.4922
RA_OF_ASC_NODE = 197.8630
ARG_OF_PERICENTER = 203.5802
MEAN_ANOMALY   = 156.4990

EPHEMERIS_TYPE = 0
CLASSIFICATION_TYPE = U
NORAD_CAT_ID   = 67751
ELEMENT_SET_NO = 999
REV_AT_EPOCH   = 388
BSTAR          = .22390931E-3
MEAN_MOTION_DOT = .4513E-4
MEAN_MOTION_DDOT = 0

CCSDS_OMM_VERS = 2.0
CREATION_DATE  = 
ORIGINATOR     = 

OBJECT_NAME    = 2026-027G
OBJECT_ID      = 2026-027G
CENTER_NAME    = EARTH
REF_FRAME      = TEME
TIME_SYSTEM    = UTC
MEAN_ELEMENT_THEORY = SGP/SGP4

EPOCH          = 2026-03-12T16:35:42.240768
MEAN_MOTION    = 15.12196978
ECCENTRICITY   = .0012147
INCLINATION    = 97.4910
RA_OF_ASC_NODE = 200.6271
ARG_OF_PERICENTER = 216.7250
MEAN_ANOMALY   = 143.3149

EPHEMERIS_TYPE = 0
CLASSIFICATION_TYPE = U
NORAD_CAT_ID   = 67752
ELEMENT_SET_NO = 999
REV_AT_EPOCH   = 431
BSTAR          = .49183E-3
MEAN_MOTION_DOT = .8444E-4
MEAN_MOTION_DDOT = 0

CCSDS_OMM_VERS = 2.0
CREATION_DATE  = 
ORIGINATOR     = 

OBJECT_NAME    = JIELONG-3 R/B
OBJECT_ID      = 2026-027H
CENTER_NAME    = EARTH
REF_FRAME      = TEME
TIME_SYSTEM    = UTC
MEAN_ELEMENT_THEORY = SGP/SGP4

EPOCH          = 2026-03-12T16:19:12.592704
MEAN_MOTION    = 15.79676767
ECCENTRICITY   = .0201613
INCLINATION    = 97.5109
RA_OF_ASC_NODE = 202.9670
ARG_OF_PERICENTER = 234.0184
MEAN_ANOMALY   = 124.2243

EPHEMERIS_TYPE = 0
CLASSIFICATION_TYPE = U
NORAD_CAT_ID   = 67753
ELEMENT_SET_NO = 999
REV_AT_EPOCH   = 445
BSTAR          = .74736E-3
MEAN_MOTION_DOT = .630459E-2
MEAN_MOTION_DDOT = .23594E-5

CCSDS_OMM_VERS = 2.0
CREATION_DATE  = 
ORIGINATOR     = 

OBJECT_NAME    = 2025-313BF
OBJECT_ID      = 2025-313BF
CENTER_NAME    = EARTH
REF_FRAME      = TEME
TIME_SYSTEM    = UTC
MEAN_ELEMENT_THEORY = SGP/SGP4

EPOCH          = 2026-03-12T10:34:08.839776
MEAN_MOTION    = 15.30481570
ECCENTRICITY   = .0009215
INCLINATION    = 97.3938
RA_OF_ASC_NODE = 148.0859
ARG_OF_PERICENTER = 325.7810
MEAN_ANOMALY   = 34.2836

EPHEMERIS_TYPE = 0
CLASSIFICATION_TYPE = U
NORAD_CAT_ID   = 67755
ELEMENT_SET_NO = 999
REV_AT_EPOCH   = 694
BSTAR          = .48293E-3
MEAN_MOTION_DOT = .14186E-3
MEAN_MOTION_DDOT = 0

CCSDS_OMM_VERS = 2.0
CREATION_DATE  = 
ORIGINATOR     = 

OBJECT_NAME    = 2026-028A
OBJECT_ID      = 2026-028A
CENTER_NAME    = EARTH
REF_FRAME      = TEME
TIME_SYSTEM    = UTC
MEAN_ELEMENT_THEORY = SGP/SGP4

EPOCH          = 2026-03-12T07:30:12.707712
MEAN_MOTION    = 1.00209243
ECCENTRICITY   = .0003532
INCLINATION    = 0.4645
RA_OF_ASC_NODE = 290.6128
ARG_OF_PERICENTER = 42.5096
MEAN_ANOMALY   = 26.8396

EPHEMERIS_TYPE = 0
CLASSIFICATION_TYPE = U
NORAD_CAT_ID   = 67756
ELEMENT_SET_NO = 999
REV_AT_EPOCH   = 28
BSTAR          = 0
MEAN_MOTION_DOT = -.96E-6
MEAN_MOTION_DDOT = 0

CCSDS_OMM_VERS = 2.0
CREATION_DATE  = 
ORIGINATOR     = 

OBJECT_NAME    = JAM-E JAM 1
OBJECT_ID      = 2026-028B
CENTER_NAME    = EARTH
REF_FRAME      = TEME
TIME_SYSTEM    = UTC
MEAN_ELEMENT_THEORY = SGP/SGP4

EPOCH          = 2026-03-12T13:53:03.806592
MEAN_MOTION    = 1.00231300
ECCENTRICITY   = .0005754
INCLINATION    = 0.4865
RA_OF_ASC_NODE = 286.1406
ARG_OF_PERICENTER = 134.5284
MEAN_ANOMALY   = 351.7729

EPHEMERIS_TYPE = 0
CLASSIFICATION_TYPE = U
NORAD_CAT_ID   = 67757
ELEMENT_SET_NO = 999
REV_AT_EPOCH   = 15
BSTAR          = 0
MEAN_MOTION_DOT = .155E-5
MEAN_MOTION_DDOT = 0

CCSDS_OMM_VERS = 2.0
CREATION_DATE  = 
ORIGINATOR     = 

OBJECT_NAME    = KUIPER-00159
OBJECT_ID      = 2026-030A
CENTER_NAME    = EARTH
REF_FRAME      = TEME
TIME_SYSTEM    = UTC
MEAN_ELEMENT_THEORY = SGP/SGP4

EPOCH          = 2026-03-12T15:00:33.462720
MEAN_MOTION    = 15.35950434
ECCENTRICITY   = .000551
INCLINATION    = 51.8843
RA_OF_ASC_NODE = 205.0072
ARG_OF_PERICENTER = 52.5888
MEAN_ANOMALY   = 307.5599

EPHEMERIS_TYPE = 0
CLASSIFICATION_TYPE = U
NORAD_CAT_ID   = 67764
ELEMENT_SET_NO = 999
REV_AT_EPOCH   = 554
BSTAR          = .98866E-3
MEAN_MOTION_DOT = .34924E-3
MEAN_MOTION_DDOT = 0

